{
  "type": "FeatureCollection",
  "features": [
    {
      "type": "Feature",
      "properties": {
        "norad_id": 66546,
        "name": "SHIJIAN-30B",
        "group": "last-30-days",
        "lat": 38.75215285128077,
        "lon": 12.256105324558384,
        "alt_km": 510.24890658004915,
        "timestamp": "2025-12-12T16:50:31.910727+00:00",
        "meta_object_name": "SHIJIAN-30B",
        "meta_object_id": "2025-266B",
        "meta_epoch": "2025-12-12T05:31:53.049504",
        "meta_mean_motion": 15.1539494,
        "meta_eccentricity": 0.00104721,
        "meta_inclination": 51.7965,
        "meta_ra_of_asc_node": 335.2563,
        "meta_arg_of_pericenter": 357.7085,
        "meta_mean_anomaly": 2.3842,
        "meta_ephemeris_type": 0,
        "meta_classification_type": "U",
        "meta_norad_cat_id": 66546,
        "meta_element_set_no": 999,
        "meta_rev_at_epoch": 350,
        "meta_bstar": 0.00099737999,
        "meta_mean_motion_dot": 0.00018833,
        "meta_mean_motion_ddot": 0,
        "tle_line1": "1 66546U 25266B   25346.23047511  .00018833  00000+0  99738-3 0  9992",
        "tle_line2": "2 66546  51.7965 335.2563 0010472 357.7085   2.3842 15.15394940  3506"
      },
      "geometry": {
        "type": "Point",
        "coordinates": [
          12.256105324558384,
          38.75215285128077
        ]
      }
    },
    {
      "type": "Feature",
      "properties": {
        "norad_id": 66547,
        "name": "SHIJIAN-30C",
        "group": "last-30-days",
        "lat": 37.38090258822818,
        "lon": 10.044999234501747,
        "alt_km": 510.859699588862,
        "timestamp": "2025-12-12T16:50:31.910737+00:00",
        "meta_object_name": "SHIJIAN-30C",
        "meta_object_id": "2025-266C",
        "meta_epoch": "2025-12-12T05:32:27.051360",
        "meta_mean_motion": 15.15357456,
        "meta_eccentricity": 0.00114937,
        "meta_inclination": 51.7976,
        "meta_ra_of_asc_node": 335.2594,
        "meta_arg_of_pericenter": 349.4573,
        "meta_mean_anomaly": 10.616,
        "meta_ephemeris_type": 0,
        "meta_classification_type": "U",
        "meta_norad_cat_id": 66547,
        "meta_element_set_no": 999,
        "meta_rev_at_epoch": 350,
        "meta_bstar": 0.00088728385,
        "meta_mean_motion_dot": 0.00016701,
        "meta_mean_motion_ddot": 0,
        "tle_line1": "1 66547U 25266C   25346.23086865  .00016701  00000+0  88728-3 0  9997",
        "tle_line2": "2 66547  51.7976 335.2594 0011493 349.4573  10.6160 15.15357456  3503"
      },
      "geometry": {
        "type": "Point",
        "coordinates": [
          10.044999234501747,
          37.38090258822818
        ]
      }
    },
    {
      "type": "Feature",
      "properties": {
        "norad_id": 66548,
        "name": "CZ-2C R/B",
        "group": "last-30-days",
        "lat": -9.533266681781752,
        "lon": 158.99014080182752,
        "alt_km": 422.8477429113891,
        "timestamp": "2025-12-12T16:50:31.910750+00:00",
        "meta_object_name": "CZ-2C R/B",
        "meta_object_id": "2025-266D",
        "meta_epoch": "2025-12-12T06:36:13.222656",
        "meta_mean_motion": 15.30162717,
        "meta_eccentricity": 0.00839208,
        "meta_inclination": 52.0553,
        "meta_ra_of_asc_node": 333.4936,
        "meta_arg_of_pericenter": 171.4081,
        "meta_mean_anomaly": 188.8364,
        "meta_ephemeris_type": 0,
        "meta_classification_type": "U",
        "meta_norad_cat_id": 66548,
        "meta_element_set_no": 999,
        "meta_rev_at_epoch": 354,
        "meta_bstar": 0.00046657621,
        "meta_mean_motion_dot": 0.00015017,
        "meta_mean_motion_ddot": 0,
        "tle_line1": "1 66548U 25266D   25346.27515304  .00015017  00000+0  46658-3 0  9992",
        "tle_line2": "2 66548  52.0553 333.4936 0083920 171.4081 188.8364 15.30162717  3549"
      },
      "geometry": {
        "type": "Point",
        "coordinates": [
          158.99014080182752,
          -9.533266681781752
        ]
      }
    },
    {
      "type": "Feature",
      "properties": {
        "norad_id": 66549,
        "name": "SHIJIAN-28",
        "group": "last-30-days",
        "lat": 24.20520411150926,
        "lon": -3.463520873976901,
        "alt_km": 821.5341731756016,
        "timestamp": "2025-12-12T16:50:31.910761+00:00",
        "meta_object_name": "SHIJIAN-28",
        "meta_object_id": "2025-277A",
        "meta_epoch": "2025-12-11T21:50:26.664576",
        "meta_mean_motion": 14.45036477,
        "meta_eccentricity": 0.0226533,
        "meta_inclination": 66.663,
        "meta_ra_of_asc_node": 189.8532,
        "meta_arg_of_pericenter": 275.2622,
        "meta_mean_anomaly": 82.2673,
        "meta_ephemeris_type": 0,
        "meta_classification_type": "U",
        "meta_norad_cat_id": 66549,
        "meta_element_set_no": 999,
        "meta_rev_at_epoch": 42374,
        "meta_bstar": 0.00018715,
        "meta_mean_motion_dot": 7.83e-06,
        "meta_mean_motion_ddot": 0,
        "tle_line1": "1 66549U 25277A   25345.91003084  .00000783  00000+0  18715-3 0  9999",
        "tle_line2": "2 66549  66.6630 189.8532 0226533 275.2622  82.2673 14.45036477423741"
      },
      "geometry": {
        "type": "Point",
        "coordinates": [
          -3.463520873976901,
          24.20520411150926
        ]
      }
    },
    {
      "type": "Feature",
      "properties": {
        "norad_id": 66550,
        "name": "CZ-7A R/B",
        "group": "last-30-days",
        "lat": 4.293412154816403,
        "lon": -73.08031511313388,
        "alt_km": 29795.97242041132,
        "timestamp": "2025-12-12T16:50:31.910773+00:00",
        "meta_object_name": "CZ-7A R/B",
        "meta_object_id": "2025-277B",
        "meta_epoch": "2025-12-11T21:15:17.066880",
        "meta_mean_motion": 2.66441312,
        "meta_eccentricity": 0.70455647,
        "meta_inclination": 14.387,
        "meta_ra_of_asc_node": 270.3219,
        "meta_arg_of_pericenter": 188.195,
        "meta_mean_anomaly": 147.1658,
        "meta_ephemeris_type": 0,
        "meta_classification_type": "U",
        "meta_norad_cat_id": 66550,
        "meta_element_set_no": 999,
        "meta_rev_at_epoch": 32,
        "meta_bstar": 0.0016961454,
        "meta_mean_motion_dot": 0.01819102,
        "meta_mean_motion_ddot": 7.12965e-07,
        "tle_line1": "1 66550U 25277B   25345.88561420  .01819102  71296-6  16961-2 0  9996",
        "tle_line2": "2 66550  14.3870 270.3219 7045564 188.1950 147.1658  2.66441312   320"
      },
      "geometry": {
        "type": "Point",
        "coordinates": [
          -73.08031511313388,
          4.293412154816403
        ]
      }
    },
    {
      "type": "Feature",
      "properties": {
        "norad_id": 66551,
        "name": "USA 568",
        "group": "last-30-days",
        "lat": 48.66435233063623,
        "lon": -50.993213967034116,
        "alt_km": 206.31039114858413,
        "timestamp": "2025-12-12T16:50:31.910784+00:00",
        "meta_object_name": "USA 568",
        "meta_object_id": "2024-134K",
        "meta_epoch": "2025-12-02T16:00:03.000096",
        "meta_mean_motion": 15.87051116,
        "meta_eccentricity": 7.17e-05,
        "meta_inclination": 53.1571,
        "meta_ra_of_asc_node": 236.7807,
        "meta_arg_of_pericenter": 110.7411,
        "meta_mean_anomaly": 313.9012,
        "meta_ephemeris_type": 0,
        "meta_classification_type": "U",
        "meta_norad_cat_id": 66551,
        "meta_element_set_no": 999,
        "meta_rev_at_epoch": 262,
        "meta_bstar": -0.0074303,
        "meta_mean_motion_dot": -0.01709685,
        "meta_mean_motion_ddot": 0,
        "tle_line1": "1 66551U 24134K   25336.66670139 -.01709685  00000+0 -74303-2 0  9990",
        "tle_line2": "2 66551  53.1571 236.7807 0000717 110.7411 313.9012 15.87051116  2624"
      },
      "geometry": {
        "type": "Point",
        "coordinates": [
          -50.993213967034116,
          48.66435233063623
        ]
      }
    },
    {
      "type": "Feature",
      "properties": {
        "norad_id": 66554,
        "name": "GLOBAL-33",
        "group": "last-30-days",
        "lat": -19.952795903594016,
        "lon": -99.01196112098091,
        "alt_km": 475.4425039091502,
        "timestamp": "2025-12-12T16:50:31.910794+00:00",
        "meta_object_name": "GLOBAL-33",
        "meta_object_id": "2025-267A",
        "meta_epoch": "2025-12-12T06:32:13.991424",
        "meta_mean_motion": 15.31623691,
        "meta_eccentricity": 0.00042754,
        "meta_inclination": 42.0213,
        "meta_ra_of_asc_node": 59.6909,
        "meta_arg_of_pericenter": 51.9902,
        "meta_mean_anomaly": 308.1321,
        "meta_ephemeris_type": 0,
        "meta_classification_type": "U",
        "meta_norad_cat_id": 66554,
        "meta_element_set_no": 999,
        "meta_rev_at_epoch": 333,
        "meta_bstar": 0.0004305913,
        "meta_mean_motion_dot": 0.00013207,
        "meta_mean_motion_ddot": 0,
        "tle_line1": "1 66554U 25267A   25346.27238416  .00013207  00000+0  43059-3 0  9997",
        "tle_line2": "2 66554  42.0213  59.6909 0004275  51.9902 308.1321 15.31623691  3336"
      },
      "geometry": {
        "type": "Point",
        "coordinates": [
          -99.01196112098091,
          -19.952795903594016
        ]
      }
    }
  ]
}